MAKERSAT 0              
1 43016U 17073D   26175.42911744  .00015733  00000+0  42578-3 0  9992
2 43016  97.4622  58.0052 0104847 246.7219 112.2959 15.32301022467578
SIRION PATHFINDER-2     
1 43759U 18099B   26176.63831477  .00005336  00000+0  29223-3 0  9993
2 43759  97.4253 225.4948 0007062 268.9380  91.1043 15.14618199413905
CORVUS BC4              
1 43767U 18099K   26176.65636383  .00005254  00000+0  30476-3 0  9994
2 43767  97.4067 219.3884 0007359 343.2365  16.8622 15.12557878413683
M2 PATHFINDER           
1 45727U 20037E   26176.49243845  .00002439  00000+0  17753-3 0  9991
2 45727  97.8138   7.8170 0012594 122.0421 238.2030 15.04704429326745
NETSAT-4                
1 46504U 20068U   26176.48520851  .00021779  00000+0  47719-3 0  9996
2 46504  97.8604 185.3934 0003196 293.5185  66.5726 15.44122705317059
NETSAT-3                
1 46505U 20068V   26176.56267622  .00022885  00000+0  52137-3 0  9999
2 46505  97.8651 183.6828 0003241 321.9477  38.1540 15.42949452316979
NETSAT-1                
1 46506U 20068W   26176.54621522  .00015327  00000+0  45609-3 0  9990
2 46506  97.8743 177.8976 0003995   5.0239 355.1042 15.34821083316589
NETSAT-2                
1 46507U 20068X   26176.51361613  .00027912  00000+0  56635-3 0  9994
2 46507  97.8617 185.3494 0002117 356.4581   3.6652 15.46335494317028
GREENCUBE (IO-117)      
1 53109U 22080E   26174.72102765 -.00000003  00000+0  00000+0 0  9992
2 53109  70.1445 295.9726 0008926 288.1418  71.8270  6.42583215 92482
SITRO-AIS 5 (KATYS)     
1 57176U 23091L   26176.64017022  .00014886  00000+0  51941-3 0  9994
2 57176  97.5063 240.6202 0012511  77.2432 283.0205 15.29637157165636
SITRO-AIS 6 (CHIRKIN)   
1 57192U 23091AC  26176.63869132  .00012687  00000+0  49350-3 0  9996
2 57192  97.5070 239.6928 0012921  80.3922 279.8775 15.26085353165579
SITRO-AIS 8 (ANOKHIN)   
1 57193U 23091AD  26176.64233758  .00016773  00000+0  53793-3 0  9993
2 57193  97.5059 242.2456 0011457  73.7039 286.5462 15.32347741165747
SITRO-AIS 7 (FARTUSHNIY)
1 57194U 23091AE  26176.64357580  .00012614  00000+0  49537-3 0  9995
2 57194  97.5068 239.5184 0012787  81.3448 278.9238 15.25769911165566
SITRO-AIS 10 (BURDAEV)  
1 57199U 23091AK  26176.63810410  .00023321  00000+0  60631-3 0  9990
2 57199  97.5084 247.3832 0006804  54.6689 305.5191 15.38913073166064
SITRO-AIS 9 (SHCHUKIN)  
1 57201U 23091AM  26176.66722388  .00023621  00000+0  62407-3 0  9999
2 57201  97.5083 247.1362 0007068  54.6264 305.5640 15.38413883166057
SITRO-AIS 12 (SMIRENNIY)
1 57204U 23091AQ  26176.65622867  .00022455  00000+0  58792-3 0  9998
2 57204  97.5096 247.5974 0006559  49.5026 310.6790 15.38706803166072
SITRO-AIS 11 (SHEFFER)  
1 57208U 23091AU  26176.66729286  .00022930  00000+0  59196-3 0  9993
2 57208  97.5093 247.8608 0006463  49.2331 310.9474 15.39136075166093
SITRO-AIS 25            
1 59066U 24039R   26176.75093625  .00002251  00000+0  17771-3 0  9998
2 59066  95.3909 240.9775 0142629 298.4877  60.2045 14.93552072126000
SITRO-AIS 26            
1 59067U 24039S   26176.68647341  .00002237  00000+0  17742-3 0  9993
2 59067  95.3910 240.8289 0142995 299.3166  59.3835 14.93346300125986
SITRO-AIS 27            
1 59068U 24039T   26176.72132729  .00003093  00000+0  24209-3 0  9995
2 59068  95.3911 241.1284 0141959 297.7453  60.9436 14.93766836126017
SITRO-AIS 28            
1 59071U 24039U   26176.69857330  .00002555  00000+0  20037-3 0  9994
2 59071  95.3910 241.1607 0141941 297.6602  61.0277 14.93799564126014
GRBBETA                 
1 60237U 24128C   26176.58232735  .00003506  00000+0  24540-3 0  9993
2 60237  61.9879 186.8103 0039565 136.4274 223.9956 15.06684768107535
OOV-CUBE (TUBSAT-30)    
1 60240U 24128F   26176.37277780  .00001619  00000+0  13378-3 0  9993
2 60240  61.9924 197.0293 0043615 135.5897 224.8705 15.02800403107349
ROBUSTA-3A (MEDITERRAN*)
1 60243U 24128J   26175.74162040  .00004361  00000+0  26285-3 0  9996
2 60243  61.9846 181.5272 0040316 129.6556 230.8108 15.11735460107569
LASARSAT                
1 62391U 24247Q   26176.56664088  .00037258  00000+0  72870-3 0  9996
2 62391  44.9730 215.1121 0007292  21.4252 338.6942 15.46829898 84613
CROCUBE                 
1 62394U 24247T   26175.39308509  .00030725  00000+0  56517-3 0  9994
2 62394  44.9701 218.9251 0007226  18.8099 341.3058 15.48681185 84464
FORESAIL-1 PRIME        
1 66778U 25276DS  26176.62767941  .00005785  00000+0  28143-3 0  9995
2 66778  97.4201 249.7440 0003944  86.1768 273.9917 15.18772814 31685
KNACKSAT-2              
1 67683U 98067XZ  26176.42038817  .00054321  00000+0  64307-3 0  9992
2 67683  51.6277 253.0425 0008709 252.4154 107.5888 15.60671397 21564
